STARLINK-35596          
1 66086U 25236A   26163.81081795  .00020847  00000+0  71371-3 0  9993
2 66086  53.1604  22.3632 0001304  59.9860 300.1270 15.30213722 37504
STARLINK-35563          
1 66087U 25236B   26163.83335647 -.00008088  00000+0 -22852-3 0  9999
2 66087  53.1595  21.7160 0001499 106.0974 292.3233 15.34394607  5904
STARLINK-35461          
1 66088U 25236C   26163.82758502  .00017320  00000+0  59532-3 0  9990
2 66088  53.1608  21.7565 0001447 106.2717 253.8443 15.30212133 37458
STARLINK-35571          
1 66089U 25236D   26163.83708436  .00030250  00000+0  10291-2 0  9998
2 66089  53.1595  21.8138 0000939 116.0932 244.0165 15.30206662 37514
STARLINK-35570          
1 66090U 25236E   26163.88656867  .00026413  00000+0  90048-3 0  9990
2 66090  53.1601  21.4104 0000993  88.7981 271.3133 15.30209120 37523
STARLINK-35532          
1 66091U 25236F   26163.88024227  .00027160  00000+0  92440-3 0  9998
2 66091  53.1601  21.3700 0001063 105.8467 254.2651 15.30248135 37528
STARLINK-35527          
1 66092U 25236G   26163.85158560  .00033040  00000+0  98445-3 0  9999
2 66092  53.1600  21.1977 0001063  96.3906 263.7218 15.34408362 37522
STARLINK-35500          
1 66093U 25236H   26163.84025205  .00029776  00000+0  10131-2 0  9994
2 66093  53.1599  21.8327 0001205  97.0600 263.0538 15.30210283 37519
STARLINK-35528          
1 66094U 25236J   26163.83391802  .00016322  00000+0  56179-3 0  9999
2 66094  53.1608  21.8009 0001718 134.0311 226.0832 15.30211686 37512
STARLINK-35559          
1 66095U 25236K   26163.83075713  .00031057  00000+0  10554-2 0  9998
2 66095  53.1594  21.7722 0001045  93.4951 266.6169 15.30228234 37519
STARLINK-34386          
1 66096U 25236L   26163.88975299  .00017890  00000+0  61506-3 0  9995
2 66096  53.1607  21.4290 0000940  72.5428 287.5675 15.30180613 37525
STARLINK-35613          
1 66097U 25236M   26163.83286212  .00025383  00000+0  86591-3 0  9998
2 66097  53.1592  21.7847 0001088  99.4491 260.6633 15.30211478 37511
STARLINK-34206          
1 66098U 25236N   26163.85789565  .00032130  00000+0  95748-3 0  9992
2 66098  53.1599  21.2351 0001318 133.9861 226.1250 15.34417174 37512
STARLINK-34460          
1 66099U 25236P   26163.88340267  .00020733  00000+0  70990-3 0  9996
2 66099  53.1595  21.3887 0001109  81.6596 278.4531 15.30212245 37527
STARLINK-35609          
1 66100U 25236Q   26163.81169444  .00035132  00000+0  10455-2 0  9996
2 66100  53.1603  21.6577 0000929 115.9257 244.1841 15.34415711 37456
STARLINK-35595          
1 66101U 25236R   26163.83063157  .00024564  00000+0  73575-3 0  9993
2 66101  53.1607  21.7748 0000812  96.6442 263.4653 15.34400362 37455
STARLINK-35599          
1 66102U 25236S   26163.85579176  .00030332  00000+0  90472-3 0  9994
2 66102  53.1602  21.2242 0002064 135.1905 224.9265 15.34416874 37466
STARLINK-35622          
1 66103U 25236T   26163.88103705  .00024316  00000+0  72791-3 0  9998
2 66103  53.1605  21.3768 0000854  78.0569 282.0529 15.34424441 37524
STARLINK-35452          
1 66104U 25236U   26163.86210593  .00021614  00000+0  64903-3 0  9995
2 66104  53.1613  21.2618 0001176  92.4808 267.6329 15.34398067 37522
STARLINK-35561          
1 66105U 25236V   26163.83694105  .00035769  00000+0  10638-2 0  9999
2 66105  53.1599  21.8092 0001722 151.0663 209.0435 15.34426215 37453
STARLINK-35584          
1 66106U 25236W   26163.85369029  .00030342  00000+0  90549-3 0  9998
2 66106  53.1602  21.2069 0001041  89.3760 270.7362 15.34401241 37526
STARLINK-35593          
1 66107U 25236X   26163.87262229  .00028506  00000+0  85109-3 0  9990
2 66107  53.1610  21.3216 0000762  72.5392 287.5694 15.34418995 37523
STARLINK-35590          
1 66108U 25236Y   26163.83335647 -.00007368  00000+0 -20722-3 0  9997
2 66108  53.1592  21.8028 0000874  98.8277 253.1021 15.34387958  5854
STARLINK-35545          
1 66109U 25236Z   26163.82010817  .00032194  00000+0  95916-3 0  9996
2 66109  53.1601  21.7043 0001666 141.0899 219.0224 15.34423674 37513
STARLINK-35427          
1 66110U 25236AA  26163.87931029  .00032290  00000+0  10966-2 0  9998
2 66110  53.1603  22.0764 0000910  84.1271 275.9833 15.30229040 37517
STARLINK-35574          
1 66111U 25236AB  26163.87719098  .00019158  00000+0  65724-3 0  9990
2 66111  53.1606  22.0585 0001104  79.7897 280.3229 15.30202845 37458
STARLINK-35531          
1 66112U 25236AC  26163.83920164  .00023145  00000+0  79060-3 0  9994
2 66112  53.1599  21.8219 0001283  99.4718 260.6428 15.30222521 37512
STARLINK-35491          
1 66113U 25236AD  26163.80975911  .00021631  00000+0  74002-3 0  9991
2 66113  53.1604  22.3463 0001673 124.7178 235.3980 15.30212902 37505
STARLINK-35496          
1 66114U 25237A   26162.73541144  .00026404  00000+0  78975-3 0  9997
2 66114  53.1608 322.4875 0001124  78.8378 281.2751 15.34403607 37013
STARLINK-35428          
1 66115U 25237B   26163.16957401  .00022477  00000+0  76829-3 0  9995
2 66115  53.1609 320.9320 0001445  86.8879 273.2287 15.30218589 37063
