OBJECT_NAME,OBJECT_ID,EPOCH,MEAN_MOTION,ECCENTRICITY,INCLINATION,RA_OF_ASC_NODE,ARG_OF_PERICENTER,MEAN_ANOMALY,EPHEMERIS_TYPE,CLASSIFICATION_TYPE,NORAD_CAT_ID,ELEMENT_SET_NO,REV_AT_EPOCH,BSTAR,MEAN_MOTION_DOT,MEAN_MOTION_DDOT
STARLINK-35596,2025-236A,2026-06-12T19:27:34.670880,15.30213722,.0001304,53.1604,22.3632,59.9860,300.1270,0,U,66086,999,3750,.71371E-3,.20847E-3,0
STARLINK-35563,2025-236B,2026-06-12T20:00:01.999008,15.34394607,.0001499,53.1595,21.7160,106.0974,292.3233,0,U,66087,999,590,-.22852E-3,-.8088E-4,0
STARLINK-35461,2025-236C,2026-06-12T19:51:43.345728,15.30212133,.0001447,53.1608,21.7565,106.2717,253.8443,0,U,66088,999,3745,.59532E-3,.1732E-3,0
STARLINK-35571,2025-236D,2026-06-12T20:05:24.088704,15.30206662,.0000939,53.1595,21.8138,116.0932,244.0165,0,U,66089,999,3751,.10291E-2,.3025E-3,0
STARLINK-35570,2025-236E,2026-06-12T21:16:39.533088,15.30209120,.0000993,53.1601,21.4104,88.7981,271.3133,0,U,66090,999,3752,.90048E-3,.26413E-3,0
STARLINK-35532,2025-236F,2026-06-12T21:07:32.932128,15.30248135,.0001063,53.1601,21.3700,105.8467,254.2651,0,U,66091,999,3752,.9244E-3,.2716E-3,0
STARLINK-35527,2025-236G,2026-06-12T20:26:16.995840,15.34408362,.0001063,53.1600,21.1977,96.3906,263.7218,0,U,66092,999,3752,.98445E-3,.3304E-3,0
STARLINK-35500,2025-236H,2026-06-12T20:09:57.777120,15.30210283,.0001205,53.1599,21.8327,97.0600,263.0538,0,U,66093,999,3751,.10131E-2,.29776E-3,0
STARLINK-35528,2025-236J,2026-06-12T20:00:50.516928,15.30211686,.0001718,53.1608,21.8009,134.0311,226.0832,0,U,66094,999,3751,.56179E-3,.16322E-3,0
STARLINK-35559,2025-236K,2026-06-12T19:56:17.416032,15.30228234,.0001045,53.1594,21.7722,93.4951,266.6169,0,U,66095,999,3751,.10554E-2,.31057E-3,0
STARLINK-34386,2025-236L,2026-06-12T21:21:14.658336,15.30180613,.000094,53.1607,21.4290,72.5428,287.5675,0,U,66096,999,3752,.61506E-3,.1789E-3,0
STARLINK-35613,2025-236M,2026-06-12T19:59:19.287168,15.30211478,.0001088,53.1592,21.7847,99.4491,260.6633,0,U,66097,999,3751,.86591E-3,.25383E-3,0
STARLINK-34206,2025-236N,2026-06-12T20:35:22.184160,15.34417174,.0001318,53.1599,21.2351,133.9861,226.1250,0,U,66098,999,3751,.95748E-3,.3213E-3,0
STARLINK-34460,2025-236P,2026-06-12T21:12:05.990688,15.30212245,.0001109,53.1595,21.3887,81.6596,278.4531,0,U,66099,999,3752,.7099E-3,.20733E-3,0
STARLINK-35609,2025-236Q,2026-06-12T19:28:50.399616,15.34415711,.0000929,53.1603,21.6577,115.9257,244.1841,0,U,66100,999,3745,.10455E-2,.35132E-3,0
STARLINK-35595,2025-236R,2026-06-12T19:56:06.567648,15.34400362,.0000812,53.1607,21.7748,96.6442,263.4653,0,U,66101,999,3745,.73575E-3,.24564E-3,0
STARLINK-35599,2025-236S,2026-06-12T20:32:20.408064,15.34416874,.0002064,53.1602,21.2242,135.1905,224.9265,0,U,66102,999,3746,.90472E-3,.30332E-3,0
STARLINK-35622,2025-236T,2026-06-12T21:08:41.601120,15.34424441,.0000854,53.1605,21.3768,78.0569,282.0529,0,U,66103,999,3752,.72791E-3,.24316E-3,0
STARLINK-35452,2025-236U,2026-06-12T20:41:25.952352,15.34398067,.0001176,53.1613,21.2618,92.4808,267.6329,0,U,66104,999,3752,.64903E-3,.21614E-3,0
STARLINK-35561,2025-236V,2026-06-12T20:05:11.706720,15.34426215,.0001722,53.1599,21.8092,151.0663,209.0435,0,U,66105,999,3745,.10638E-2,.35769E-3,0
STARLINK-35584,2025-236W,2026-06-12T20:29:18.841056,15.34401241,.0001041,53.1602,21.2069,89.3760,270.7362,0,U,66106,999,3752,.90549E-3,.30342E-3,0
STARLINK-35593,2025-236X,2026-06-12T20:56:34.565856,15.34418995,.0000762,53.1610,21.3216,72.5392,287.5694,0,U,66107,999,3752,.85109E-3,.28506E-3,0
STARLINK-35590,2025-236Y,2026-06-12T20:00:01.999008,15.34387958,.0000874,53.1592,21.8028,98.8277,253.1021,0,U,66108,999,585,-.20722E-3,-.7368E-4,0
STARLINK-35545,2025-236Z,2026-06-12T19:40:57.345888,15.34423674,.0001666,53.1601,21.7043,141.0899,219.0224,0,U,66109,999,3751,.95916E-3,.32194E-3,0
STARLINK-35427,2025-236AA,2026-06-12T21:06:12.409056,15.30229040,.000091,53.1603,22.0764,84.1271,275.9833,0,U,66110,999,3751,.10966E-2,.3229E-3,0
STARLINK-35574,2025-236AB,2026-06-12T21:03:09.300672,15.30202845,.0001104,53.1606,22.0585,79.7897,280.3229,0,U,66111,999,3745,.65724E-3,.19158E-3,0
STARLINK-35531,2025-236AC,2026-06-12T20:08:27.021696,15.30222521,.0001283,53.1599,21.8219,99.4718,260.6428,0,U,66112,999,3751,.7906E-3,.23145E-3,0
STARLINK-35491,2025-236AD,2026-06-12T19:26:03.187104,15.30212902,.0001673,53.1604,22.3463,124.7178,235.3980,0,U,66113,999,3750,.74002E-3,.21631E-3,0
STARLINK-35496,2025-237A,2026-06-11T17:38:59.548416,15.34403607,.00011243,53.1608,322.4875,78.8378,281.2751,0,U,66114,999,3701,.78975412E-3,.26404E-3,0
STARLINK-35428,2025-237B,2026-06-12T04:04:11.194464,15.30218589,.00014458,53.1609,320.9320,86.8879,273.2287,0,U,66115,999,3706,.76828524E-3,.22477E-3,0
